HULIANWANG DIGUI 13A    
1 66412U 25258A   25336.31838759  .00000075  00000+0  10239-3 0  9993
2 66412  50.0038 305.8340 0014066 321.1901  38.8001 14.23490407  3179
HULIANWANG DIGUI 13B    
1 66413U 25258B   25336.32604272  .00000027  00000+0  81245-4 0  9999
2 66413  50.0009 305.8640 0013392 321.7901  38.2062 14.23481506  3179
HULIANWANG DIGUI 13C    
1 66414U 25258C   25336.32290701  .00000078  00000+0  10364-3 0  9997
2 66414  50.0046 305.8619 0013584 320.0716  39.9197 14.23507164  3172
HULIANWANG DIGUI 13D    
1 66415U 25258D   25336.31698507  .00000140  00000+0  13085-3 0  9996
2 66415  50.0042 305.8264 0013392 326.8111  33.1961 14.23495400  3179
HULIANWANG DIGUI 13E    
1 66416U 25258E   25336.18079358  .00000080  00000+0  10446-3 0  9990
2 66416  50.0045 306.4445 0012751 327.4493  32.5632 14.23468154  3151
HULIANWANG DIGUI 13F    
1 66417U 25258F   25336.31985050  .00000113  00000+0  11880-3 0  9991
2 66417  49.9997 305.8246 0012377 326.2050  33.8073 14.23476143  3179
HULIANWANG DIGUI 13G    
1 66418U 25258G   25336.31566686  .00000153  00000+0  13631-3 0  9992
2 66418  50.0007 305.8041 0012505 322.1472  37.8561 14.23487475  3170
HULIANWANG DIGUI 13H    
1 66419U 25258H   25336.31420021  .00000158  00000+0  13864-3 0  9998
2 66419  50.0005 305.7927 0012056 323.1241  36.8842 14.23504745  3178
HULIANWANG DIGUI 13J    
1 66420U 25258J   25336.31301753  .00000156  00000+0  13790-3 0  9996
2 66420  50.0026 305.7969 0011461 330.3880  29.6383 14.23472286  3160
STARLINK-35617          
1 66422U 25259A   25336.83336806 -.02033639  00000+0 -38800-1 0  9996
2 66422  42.9999 105.2853 0001563 272.7993  60.4266 15.50636561  4682
