CCSDS_OMM_VERS = 2.0
CREATION_DATE  = 
ORIGINATOR     = 

OBJECT_NAME    = HULIANWANG DIGUI 13A
OBJECT_ID      = 2025-258A
CENTER_NAME    = EARTH
REF_FRAME      = TEME
TIME_SYSTEM    = UTC
MEAN_ELEMENT_THEORY = SGP/SGP4

EPOCH          = 2025-12-02T07:38:28.687776
MEAN_MOTION    = 14.23490407
ECCENTRICITY   = .00140664
INCLINATION    = 50.0038
RA_OF_ASC_NODE = 305.8340
ARG_OF_PERICENTER = 321.1901
MEAN_ANOMALY   = 38.8001

EPHEMERIS_TYPE = 0
CLASSIFICATION_TYPE = U
NORAD_CAT_ID   = 66412
ELEMENT_SET_NO = 999
REV_AT_EPOCH   = 317
BSTAR          = .10239421E-3
MEAN_MOTION_DOT = .75E-6
MEAN_MOTION_DDOT = 0

CCSDS_OMM_VERS = 2.0
CREATION_DATE  = 
ORIGINATOR     = 

OBJECT_NAME    = HULIANWANG DIGUI 13B
OBJECT_ID      = 2025-258B
CENTER_NAME    = EARTH
REF_FRAME      = TEME
TIME_SYSTEM    = UTC
MEAN_ELEMENT_THEORY = SGP/SGP4

EPOCH          = 2025-12-02T07:49:30.091008
MEAN_MOTION    = 14.23481506
ECCENTRICITY   = .00133924
INCLINATION    = 50.0009
RA_OF_ASC_NODE = 305.8640
ARG_OF_PERICENTER = 321.7901
MEAN_ANOMALY   = 38.2062

EPHEMERIS_TYPE = 0
CLASSIFICATION_TYPE = U
NORAD_CAT_ID   = 66413
ELEMENT_SET_NO = 999
REV_AT_EPOCH   = 317
BSTAR          = .81244901E-4
MEAN_MOTION_DOT = .27E-6
MEAN_MOTION_DDOT = 0

CCSDS_OMM_VERS = 2.0
CREATION_DATE  = 
ORIGINATOR     = 

OBJECT_NAME    = HULIANWANG DIGUI 13C
OBJECT_ID      = 2025-258C
CENTER_NAME    = EARTH
REF_FRAME      = TEME
TIME_SYSTEM    = UTC
MEAN_ELEMENT_THEORY = SGP/SGP4

EPOCH          = 2025-12-02T07:44:59.165664
MEAN_MOTION    = 14.23507164
ECCENTRICITY   = .00135846
INCLINATION    = 50.0046
RA_OF_ASC_NODE = 305.8619
ARG_OF_PERICENTER = 320.0716
MEAN_ANOMALY   = 39.9197

EPHEMERIS_TYPE = 0
CLASSIFICATION_TYPE = U
NORAD_CAT_ID   = 66414
ELEMENT_SET_NO = 999
REV_AT_EPOCH   = 317
BSTAR          = .10364125E-3
MEAN_MOTION_DOT = .78E-6
MEAN_MOTION_DDOT = 0

CCSDS_OMM_VERS = 2.0
CREATION_DATE  = 
ORIGINATOR     = 

OBJECT_NAME    = HULIANWANG DIGUI 13D
OBJECT_ID      = 2025-258D
CENTER_NAME    = EARTH
REF_FRAME      = TEME
TIME_SYSTEM    = UTC
MEAN_ELEMENT_THEORY = SGP/SGP4

EPOCH          = 2025-12-02T07:36:27.510048
MEAN_MOTION    = 14.23495400
ECCENTRICITY   = .00133929
INCLINATION    = 50.0042
RA_OF_ASC_NODE = 305.8264
ARG_OF_PERICENTER = 326.8111
MEAN_ANOMALY   = 33.1961

EPHEMERIS_TYPE = 0
CLASSIFICATION_TYPE = U
NORAD_CAT_ID   = 66415
ELEMENT_SET_NO = 999
REV_AT_EPOCH   = 317
BSTAR          = .13084593E-3
MEAN_MOTION_DOT = .14E-5
MEAN_MOTION_DDOT = 0

CCSDS_OMM_VERS = 2.0
CREATION_DATE  = 
ORIGINATOR     = 

OBJECT_NAME    = HULIANWANG DIGUI 13E
OBJECT_ID      = 2025-258E
CENTER_NAME    = EARTH
REF_FRAME      = TEME
TIME_SYSTEM    = UTC
MEAN_ELEMENT_THEORY = SGP/SGP4

EPOCH          = 2025-12-02T04:20:20.565312
MEAN_MOTION    = 14.23468154
ECCENTRICITY   = .0012751
INCLINATION    = 50.0045
RA_OF_ASC_NODE = 306.4445
ARG_OF_PERICENTER = 327.4493
MEAN_ANOMALY   = 32.5632

EPHEMERIS_TYPE = 0
CLASSIFICATION_TYPE = U
NORAD_CAT_ID   = 66416
ELEMENT_SET_NO = 999
REV_AT_EPOCH   = 315
BSTAR          = .10445686E-3
MEAN_MOTION_DOT = .8E-6
MEAN_MOTION_DDOT = 0

CCSDS_OMM_VERS = 2.0
CREATION_DATE  = 
ORIGINATOR     = 

OBJECT_NAME    = HULIANWANG DIGUI 13F
OBJECT_ID      = 2025-258F
CENTER_NAME    = EARTH
REF_FRAME      = TEME
TIME_SYSTEM    = UTC
MEAN_ELEMENT_THEORY = SGP/SGP4

EPOCH          = 2025-12-02T07:40:35.083200
MEAN_MOTION    = 14.23476143
ECCENTRICITY   = .00123778
INCLINATION    = 49.9997
RA_OF_ASC_NODE = 305.8246
ARG_OF_PERICENTER = 326.2050
MEAN_ANOMALY   = 33.8073

EPHEMERIS_TYPE = 0
CLASSIFICATION_TYPE = U
NORAD_CAT_ID   = 66417
ELEMENT_SET_NO = 999
REV_AT_EPOCH   = 317
BSTAR          = .11880035E-3
MEAN_MOTION_DOT = .113E-5
MEAN_MOTION_DDOT = 0

CCSDS_OMM_VERS = 2.0
CREATION_DATE  = 
ORIGINATOR     = 

OBJECT_NAME    = HULIANWANG DIGUI 13G
OBJECT_ID      = 2025-258G
CENTER_NAME    = EARTH
REF_FRAME      = TEME
TIME_SYSTEM    = UTC
MEAN_ELEMENT_THEORY = SGP/SGP4

EPOCH          = 2025-12-02T07:34:33.616704
MEAN_MOTION    = 14.23487475
ECCENTRICITY   = .00125057
INCLINATION    = 50.0007
RA_OF_ASC_NODE = 305.8041
ARG_OF_PERICENTER = 322.1472
MEAN_ANOMALY   = 37.8561

EPHEMERIS_TYPE = 0
CLASSIFICATION_TYPE = U
NORAD_CAT_ID   = 66418
ELEMENT_SET_NO = 999
REV_AT_EPOCH   = 317
BSTAR          = .13630867E-3
MEAN_MOTION_DOT = .153E-5
MEAN_MOTION_DDOT = 0

CCSDS_OMM_VERS = 2.0
CREATION_DATE  = 
ORIGINATOR     = 

OBJECT_NAME    = HULIANWANG DIGUI 13H
OBJECT_ID      = 2025-258H
CENTER_NAME    = EARTH
REF_FRAME      = TEME
TIME_SYSTEM    = UTC
MEAN_ELEMENT_THEORY = SGP/SGP4

EPOCH          = 2025-12-02T07:32:26.898144
MEAN_MOTION    = 14.23504745
ECCENTRICITY   = .00120562
INCLINATION    = 50.0005
RA_OF_ASC_NODE = 305.7927
ARG_OF_PERICENTER = 323.1241
MEAN_ANOMALY   = 36.8842

EPHEMERIS_TYPE = 0
CLASSIFICATION_TYPE = U
NORAD_CAT_ID   = 66419
ELEMENT_SET_NO = 999
REV_AT_EPOCH   = 317
BSTAR          = .13864058E-3
MEAN_MOTION_DOT = .158E-5
MEAN_MOTION_DDOT = 0

CCSDS_OMM_VERS = 2.0
CREATION_DATE  = 
ORIGINATOR     = 

OBJECT_NAME    = HULIANWANG DIGUI 13J
OBJECT_ID      = 2025-258J
CENTER_NAME    = EARTH
REF_FRAME      = TEME
TIME_SYSTEM    = UTC
MEAN_ELEMENT_THEORY = SGP/SGP4

EPOCH          = 2025-12-02T07:30:44.714592
MEAN_MOTION    = 14.23472286
ECCENTRICITY   = .00114612
INCLINATION    = 50.0026
RA_OF_ASC_NODE = 305.7969
ARG_OF_PERICENTER = 330.3880
MEAN_ANOMALY   = 29.6383

EPHEMERIS_TYPE = 0
CLASSIFICATION_TYPE = U
NORAD_CAT_ID   = 66420
ELEMENT_SET_NO = 999
REV_AT_EPOCH   = 316
BSTAR          = .13790136E-3
MEAN_MOTION_DOT = .156E-5
MEAN_MOTION_DDOT = 0

CCSDS_OMM_VERS = 2.0
CREATION_DATE  = 
ORIGINATOR     = 

OBJECT_NAME    = STARLINK-35617
OBJECT_ID      = 2025-259A
CENTER_NAME    = EARTH
REF_FRAME      = TEME
TIME_SYSTEM    = UTC
MEAN_ELEMENT_THEORY = SGP/SGP4

EPOCH          = 2025-12-02T20:00:03.000384
MEAN_MOTION    = 15.50636561
ECCENTRICITY   = .0001563
INCLINATION    = 42.9999
RA_OF_ASC_NODE = 105.2853
ARG_OF_PERICENTER = 272.7993
MEAN_ANOMALY   = 60.4266

EPHEMERIS_TYPE = 0
CLASSIFICATION_TYPE = U
NORAD_CAT_ID   = 66422
ELEMENT_SET_NO = 999
REV_AT_EPOCH   = 468
BSTAR          = -.388E-1
MEAN_MOTION_DOT = -.2033639E-1
MEAN_MOTION_DDOT = 0

